{"generatedAt":"2026-04-14T07:56:45.725768Z","satellites":[{"name":"ONEWEB-0322","tle1":"1 49192U 21083G   26103.93769248  .00000379  00000+0  10032-2 0  9995","tle2":"2 49192  87.8976 333.0351 0002189  80.6770 279.4607 13.13469305222486"},{"name":"ONEWEB-0324","tle1":"1 49193U 21083H   26103.94425509  .00000050  00000+0  93295-4 0  9996","tle2":"2 49193  87.9223 348.2218 0001727  77.0475 283.0850 13.18684301221538"},{"name":"ONEWEB-0325","tle1":"1 49194U 21083J   26103.94756248 -.00000050  00000+0 -15948-3 0  9994","tle2":"2 49194  87.9241 348.2358 0001831  82.6154 277.5186 13.18683945221540"},{"name":"ONEWEB-0326","tle1":"1 49195U 21083K   26103.96254161 -.00000059  00000+0 -18121-3 0  9999","tle2":"2 49195  87.9222 348.2249 0001658  90.6526 269.4796 13.18684207221536"},{"name":"ONEWEB-0327","tle1":"1 49196U 21083L   26103.96226152  .00000005  00000+0 -19963-4 0  9995","tle2":"2 49196  87.9214 348.2345 0001689  95.5996 264.5328 13.18687459221555"},{"name":"ONEWEB-0328","tle1":"1 49197U 21083M   26103.92753632  .00000304  00000+0  79701-3 0  9996","tle2":"2 49197  87.8994 333.0028 0001615  78.5543 281.5768 13.13468884222460"},{"name":"ONEWEB-0331","tle1":"1 49198U 21083N   26103.95580342  .00000025  00000+0  30305-4 0  9994","tle2":"2 49198  87.9227 348.2199 0001409  86.4574 273.6719 13.18686046221544"},{"name":"ONEWEB-0333","tle1":"1 49199U 21083P   26103.92245590  .00000234  00000+0  60508-3 0  9994","tle2":"2 49199  87.8974 333.0360 0001737  84.5407 275.5920 13.13469763222471"},{"name":"ONEWEB-0334","tle1":"1 49200U 21083Q   26103.52198734  .00000073  00000+0  14808-3 0  9993","tle2":"2 49200  87.9129 287.3591 0002662  83.1316 277.0121 13.20773013228252"},{"name":"ONEWEB-0335","tle1":"1 49201U 21083R   26103.91736931  .00000183  00000+0  46615-3 0  9997","tle2":"2 49201  87.8984 333.0331 0001554  86.2784 273.8523 13.13469736222489"},{"name":"ONEWEB-0336","tle1":"1 49202U 21083S   26103.88859136 -.00000312  00000+0 -88941-3 0  9991","tle2":"2 49202  87.8980 333.0351 0001368  87.3834 272.7452 13.13468810222479"},{"name":"ONEWEB-0337","tle1":"1 49203U 21083T   26103.89861656 -.00000265  00000+0 -76157-3 0  9996","tle2":"2 49203  87.8989 333.0410 0001508  78.4885 281.6414 13.13469120222470"},{"name":"ONEWEB-0338","tle1":"1 49204U 21083U   26103.79976076  .00000013  00000+0  10803-5 0  9996","tle2":"2 49204  87.9129 287.3084 0002063  87.5460 272.5910 13.20772991228313"},{"name":"ONEWEB-0339","tle1":"1 49205U 21083V   26103.90721176 -.00000135  00000+0 -40583-3 0  9992","tle2":"2 49205  87.8983 333.0300 0001964  76.5481 283.5867 13.13469512222457"},{"name":"ONEWEB-0340","tle1":"1 49206U 21083W   26103.94260468 -.00000035  00000+0 -12086-3 0  9995","tle2":"2 49206  87.9224 348.2280 0001717  82.9597 277.1730 13.18683668221505"},{"name":"ONEWEB-0341","tle1":"1 49207U 21083X   26103.94920756 -.00000022  00000+0 -87442-4 0  9994","tle2":"2 49207  87.9222 348.2342 0001482  65.3735 294.7552 13.18684139221524"}]}