[{"OBJECT_NAME":"ONEWEB-0322","OBJECT_ID":"2021-083G","EPOCH":"2026-04-13T22:30:16.630272","MEAN_MOTION":13.13469305,"ECCENTRICITY":0.0002189,"INCLINATION":87.8976,"RA_OF_ASC_NODE":333.0351,"ARG_OF_PERICENTER":80.677,"MEAN_ANOMALY":279.4607,"EPHEMERIS_TYPE":0,"CLASSIFICATION_TYPE":"U","NORAD_CAT_ID":49192,"ELEMENT_SET_NO":999,"REV_AT_EPOCH":22248,"BSTAR":0.0010032,"MEAN_MOTION_DOT":3.79e-06,"MEAN_MOTION_DDOT":0.0},{"OBJECT_NAME":"ONEWEB-0324","OBJECT_ID":"2021-083H","EPOCH":"2026-04-13T22:39:43.639776","MEAN_MOTION":13.18684301,"ECCENTRICITY":0.0001727,"INCLINATION":87.9223,"RA_OF_ASC_NODE":348.2218,"ARG_OF_PERICENTER":77.0475,"MEAN_ANOMALY":283.085,"EPHEMERIS_TYPE":0,"CLASSIFICATION_TYPE":"U","NORAD_CAT_ID":49193,"ELEMENT_SET_NO":999,"REV_AT_EPOCH":22153,"BSTAR":9.3295e-05,"MEAN_MOTION_DOT":5e-07,"MEAN_MOTION_DDOT":0.0},{"OBJECT_NAME":"ONEWEB-0325","OBJECT_ID":"2021-083J","EPOCH":"2026-04-13T22:44:29.398272","MEAN_MOTION":13.18683945,"ECCENTRICITY":0.0001831,"INCLINATION":87.9241,"RA_OF_ASC_NODE":348.2358,"ARG_OF_PERICENTER":82.6154,"MEAN_ANOMALY":277.5186,"EPHEMERIS_TYPE":0,"CLASSIFICATION_TYPE":"U","NORAD_CAT_ID":49194,"ELEMENT_SET_NO":999,"REV_AT_EPOCH":22154,"BSTAR":-0.00015948,"MEAN_MOTION_DOT":-5e-07,"MEAN_MOTION_DDOT":0.0},{"OBJECT_NAME":"ONEWEB-0326","OBJECT_ID":"2021-083K","EPOCH":"2026-04-13T23:06:03.595104","MEAN_MOTION":13.18684207,"ECCENTRICITY":0.0001658,"INCLINATION":87.9222,"RA_OF_ASC_NODE":348.2249,"ARG_OF_PERICENTER":90.6526,"MEAN_ANOMALY":269.4796,"EPHEMERIS_TYPE":0,"CLASSIFICATION_TYPE":"U","NORAD_CAT_ID":49195,"ELEMENT_SET_NO":999,"REV_AT_EPOCH":22153,"BSTAR":-0.00018121,"MEAN_MOTION_DOT":-5.9e-07,"MEAN_MOTION_DDOT":0.0},{"OBJECT_NAME":"ONEWEB-0327","OBJECT_ID":"2021-083L","EPOCH":"2026-04-13T23:05:39.395328","MEAN_MOTION":13.18687459,"ECCENTRICITY":0.0001689,"INCLINATION":87.9214,"RA_OF_ASC_NODE":348.2345,"ARG_OF_PERICENTER":95.5996,"MEAN_ANOMALY":264.5328,"EPHEMERIS_TYPE":0,"CLASSIFICATION_TYPE":"U","NORAD_CAT_ID":49196,"ELEMENT_SET_NO":999,"REV_AT_EPOCH":22155,"BSTAR":-1.9963000000000002e-05,"MEAN_MOTION_DOT":5e-08,"MEAN_MOTION_DDOT":0.0},{"OBJECT_NAME":"ONEWEB-0328","OBJECT_ID":"2021-083M","EPOCH":"2026-04-13T22:15:39.138048","MEAN_MOTION":13.13468884,"ECCENTRICITY":0.0001615,"INCLINATION":87.8994,"RA_OF_ASC_NODE":333.0028,"ARG_OF_PERICENTER":78.5543,"MEAN_ANOMALY":281.5768,"EPHEMERIS_TYPE":0,"CLASSIFICATION_TYPE":"U","NORAD_CAT_ID":49197,"ELEMENT_SET_NO":999,"REV_AT_EPOCH":22246,"BSTAR":0.00079701,"MEAN_MOTION_DOT":3.04e-06,"MEAN_MOTION_DDOT":0.0},{"OBJECT_NAME":"ONEWEB-0331","OBJECT_ID":"2021-083N","EPOCH":"2026-04-13T22:56:21.415488","MEAN_MOTION":13.18686046,"ECCENTRICITY":0.0001409,"INCLINATION":87.9227,"RA_OF_ASC_NODE":348.2199,"ARG_OF_PERICENTER":86.4574,"MEAN_ANOMALY":273.6719,"EPHEMERIS_TYPE":0,"CLASSIFICATION_TYPE":"U","NORAD_CAT_ID":49198,"ELEMENT_SET_NO":999,"REV_AT_EPOCH":22154,"BSTAR":3.0305e-05,"MEAN_MOTION_DOT":2.5e-07,"MEAN_MOTION_DDOT":0.0},{"OBJECT_NAME":"ONEWEB-0333","OBJECT_ID":"2021-083P","EPOCH":"2026-04-13T22:08:20.189760","MEAN_MOTION":13.13469763,"ECCENTRICITY":0.0001737,"INCLINATION":87.8974,"RA_OF_ASC_NODE":333.036,"ARG_OF_PERICENTER":84.5407,"MEAN_ANOMALY":275.592,"EPHEMERIS_TYPE":0,"CLASSIFICATION_TYPE":"U","NORAD_CAT_ID":49199,"ELEMENT_SET_NO":999,"REV_AT_EPOCH":22247,"BSTAR":0.0006050799999999999,"MEAN_MOTION_DOT":2.34e-06,"MEAN_MOTION_DDOT":0.0},{"OBJECT_NAME":"ONEWEB-0334","OBJECT_ID":"2021-083Q","EPOCH":"2026-04-13T12:31:39.706176","MEAN_MOTION":13.20773013,"ECCENTRICITY":0.0002662,"INCLINATION":87.9129,"RA_OF_ASC_NODE":287.3591,"ARG_OF_PERICENTER":83.1316,"MEAN_ANOMALY":277.0121,"EPHEMERIS_TYPE":0,"CLASSIFICATION_TYPE":"U","NORAD_CAT_ID":49200,"ELEMENT_SET_NO":999,"REV_AT_EPOCH":22825,"BSTAR":0.00014808,"MEAN_MOTION_DOT":7.3e-07,"MEAN_MOTION_DDOT":0.0},{"OBJECT_NAME":"ONEWEB-0335","OBJECT_ID":"2021-083R","EPOCH":"2026-04-13T22:01:00.708384","MEAN_MOTION":13.13469736,"ECCENTRICITY":0.0001554,"INCLINATION":87.8984,"RA_OF_ASC_NODE":333.0331,"ARG_OF_PERICENTER":86.2784,"MEAN_ANOMALY":273.8523,"EPHEMERIS_TYPE":0,"CLASSIFICATION_TYPE":"U","NORAD_CAT_ID":49201,"ELEMENT_SET_NO":999,"REV_AT_EPOCH":22248,"BSTAR":0.00046615000000000003,"MEAN_MOTION_DOT":1.83e-06,"MEAN_MOTION_DDOT":0.0},{"OBJECT_NAME":"ONEWEB-0336","OBJECT_ID":"2021-083S","EPOCH":"2026-04-13T21:19:34.293504","MEAN_MOTION":13.1346881,"ECCENTRICITY":0.0001368,"INCLINATION":87.898,"RA_OF_ASC_NODE":333.0351,"ARG_OF_PERICENTER":87.3834,"MEAN_ANOMALY":272.7452,"EPHEMERIS_TYPE":0,"CLASSIFICATION_TYPE":"U","NORAD_CAT_ID":49202,"ELEMENT_SET_NO":999,"REV_AT_EPOCH":22247,"BSTAR":-0.0008894100000000001,"MEAN_MOTION_DOT":-3.12e-06,"MEAN_MOTION_DDOT":0.0},{"OBJECT_NAME":"ONEWEB-0337","OBJECT_ID":"2021-083T","EPOCH":"2026-04-13T21:34:00.470784","MEAN_MOTION":13.1346912,"ECCENTRICITY":0.0001508,"INCLINATION":87.8989,"RA_OF_ASC_NODE":333.041,"ARG_OF_PERICENTER":78.4885,"MEAN_ANOMALY":281.6414,"EPHEMERIS_TYPE":0,"CLASSIFICATION_TYPE":"U","NORAD_CAT_ID":49203,"ELEMENT_SET_NO":999,"REV_AT_EPOCH":22247,"BSTAR":-0.0007615699999999999,"MEAN_MOTION_DOT":-2.65e-06,"MEAN_MOTION_DDOT":0.0},{"OBJECT_NAME":"ONEWEB-0338","OBJECT_ID":"2021-083U","EPOCH":"2026-04-13T19:11:39.329664","MEAN_MOTION":13.20772991,"ECCENTRICITY":0.0002063,"INCLINATION":87.9129,"RA_OF_ASC_NODE":287.3084,"ARG_OF_PERICENTER":87.546,"MEAN_ANOMALY":272.591,"EPHEMERIS_TYPE":0,"CLASSIFICATION_TYPE":"U","NORAD_CAT_ID":49204,"ELEMENT_SET_NO":999,"REV_AT_EPOCH":22831,"BSTAR":1.0803e-06,"MEAN_MOTION_DOT":1.3e-07,"MEAN_MOTION_DDOT":0.0},{"OBJECT_NAME":"ONEWEB-0339","OBJECT_ID":"2021-083V","EPOCH":"2026-04-13T21:46:23.096064","MEAN_MOTION":13.13469512,"ECCENTRICITY":0.0001964,"INCLINATION":87.8983,"RA_OF_ASC_NODE":333.03,"ARG_OF_PERICENTER":76.5481,"MEAN_ANOMALY":283.5867,"EPHEMERIS_TYPE":0,"CLASSIFICATION_TYPE":"U","NORAD_CAT_ID":49205,"ELEMENT_SET_NO":999,"REV_AT_EPOCH":22245,"BSTAR":-0.00040583000000000004,"MEAN_MOTION_DOT":-1.35e-06,"MEAN_MOTION_DDOT":0.0},{"OBJECT_NAME":"ONEWEB-0340","OBJECT_ID":"2021-083W","EPOCH":"2026-04-13T22:37:21.044352","MEAN_MOTION":13.18683668,"ECCENTRICITY":0.0001717,"INCLINATION":87.9224,"RA_OF_ASC_NODE":348.228,"ARG_OF_PERICENTER":82.9597,"MEAN_ANOMALY":277.173,"EPHEMERIS_TYPE":0,"CLASSIFICATION_TYPE":"U","NORAD_CAT_ID":49206,"ELEMENT_SET_NO":999,"REV_AT_EPOCH":22150,"BSTAR":-0.00012085999999999999,"MEAN_MOTION_DOT":-3.5e-07,"MEAN_MOTION_DDOT":0.0},{"OBJECT_NAME":"ONEWEB-0341","OBJECT_ID":"2021-083X","EPOCH":"2026-04-13T22:46:51.533184","MEAN_MOTION":13.18684139,"ECCENTRICITY":0.0001482,"INCLINATION":87.9222,"RA_OF_ASC_NODE":348.2342,"ARG_OF_PERICENTER":65.3735,"MEAN_ANOMALY":294.7552,"EPHEMERIS_TYPE":0,"CLASSIFICATION_TYPE":"U","NORAD_CAT_ID":49207,"ELEMENT_SET_NO":999,"REV_AT_EPOCH":22152,"BSTAR":-8.744200000000001e-05,"MEAN_MOTION_DOT":-2.2e-07,"MEAN_MOTION_DDOT":0.0}]